FLOCK 4G-21             
1 62651U 25009AU  26068.19487675  .00013648  00000+0  49619-3 0  9998
2 62651  97.4032 151.1274 0000465 329.5782  30.5431 15.28381075 63677
STARLINK-36113          
1 66982U 25288Z   26068.24506035  .00028263  00000+0  10333-2 0  9995
2 66982  42.9997  25.5880 0001041 268.0745  91.9988 15.27560673 15225
